SatCatId,ObjectName,LaunchYear,OrbitalPeriod,LaunchMass,StatusCode,Inclination,Status,UcsData,OrbitClassEstimated,LaunchSiteCountry,Owner,UseType,Purpose,LaunchVehicleClass,TLE1,TLE2,MeanMotion,Eccentricity,OrbitClass
16969,NOAA 10,1986,100.77,-1.0,-,98.67,Inactive,0,LEO,USA,USA,Unknown,Unknown,Unknown,1 16969U 86073A   25169.52622531  .00000113  00000+0  62129-4 0  9992,2 16969  98.6743 158.8662 0011775 345.7624 127.2873 14.29010781 17470,14.29010781,0.0011775,LEO
25162,GLOBALSTAR M001,1998,116.3,-1.0,-,52.01,Inactive,0,LEO,USA,Globalstar,Unknown,Unknown,Unknown,1 25162U 98008A   25169.39477008 -.00000092  00000+0  32988-4 0  9997,2 25162  52.0051 329.7091 0000841 224.4704 149.0296 12.38214262243863,12.38214262,8.41e-05,LEO
25163,GLOBALSTAR M004,1998,113.98,-1.0,-,52.0,Inactive,0,LEO,USA,Globalstar,Unknown,Unknown,Unknown,1 25163U 98008B   25169.44335030 -.00000091  00000+0  70454-4 0  9991,2 25163  52.0018  50.3192 0002629 306.6630 224.8285 12.63396907261846,12.63396907,0.0002629,LEO
25164,GLOBALSTAR M002,1998,123.98,-1.0,-,52.0,Inactive,0,LEO,USA,Globalstar,Unknown,Unknown,Unknown,1 25164U 98008C   25169.54222394 -.00000072  00000+0  95502-4 0  9991,2 25164  52.0000 236.8083 0001791 158.0672 202.0225 11.61509722184228,11.61509722,0.0001791,LEO
25165,GLOBALSTAR M003,1998,118.8,-1.0,-,52.0,Inactive,0,LEO,USA,Globalstar,Unknown,Unknown,Unknown,1 25165U 98008D   25169.26307606 -.00000134  00000+0 -47669-3 0  9991,2 25165  51.9960 165.5445 0008122 296.2537  77.0125 12.12074323233351,12.12074323,0.0008122,LEO
41554,COSMOS 2516 [GLONASS-M],2016,675.72,1415.0,-,63.84,Inactive,1,MEO,Russia,Russia/USSR,Commercial/Military,Navigation (Global or Regional Positioning),Soyuz,1 41554U 16032A   25166.42105766  .00000079  00000+0  00000+0 0  9996,2 41554  63.8424 203.6542 0017065 212.9073 147.0605  2.13106568 70410,2.13106568,0.0017065,MEO
25175,KAKEHASHI (COMETS),1998,328.07,-1.0,-,30.12,Inactive,0,MEO,Japan,Japan,Unknown,Unknown,Unknown,1 25175U 98011A   25169.40789135 -.00000037  00000+0  00000+0 0  9998,2 25175  30.1175  94.5557 5297794  14.5185 356.1553  4.38935793446880,4.38935793,0.5297794,MEO
16986,COSMOS 1782,1986,94.29,-1.0,UNK,82.53,Inactive,0,LEO,Russia,Russia/USSR,Unknown,Unknown,Unknown,1 16986U 86074A   25169.39525671  .00006916  00000+0  25754-3 0  9993,2 16986  82.5282 144.2169 0008613  73.1054 287.1129 15.27258202 90894,15.27258202,0.0008613,LEO
8799,METEOR 1-24,1976,101.99,-1.0,UNK,81.26,Inactive,0,LEO,Russia,Russia/USSR,Unknown,Unknown,Unknown,1 08799U 76032A   25169.46888249  .00000133  00000+0  65311-4 0  9999,2 08799  81.2552 222.9020 0034865 165.0703 195.1507 14.11839343532659,14.11839343,0.0034865,LEO
33378,COSMOS 2442 [GLONASS-M],2008,675.71,-1.0,-,65.67,Inactive,0,MEO,Kazakhstan,Russia/USSR,Unknown,Unknown,Unknown,1 33378U 08046A   25169.54915266 -.00000036  00000+0  00000+0 0  9991,2 33378  65.6669 327.1240 0017773 305.2062  58.2937  2.13108034130208,2.13108034,0.0017773,MEO
33379,COSMOS 2443 [GLONASS-M],2008,675.74,-1.0,-,65.68,Inactive,0,MEO,Kazakhstan,Russia/USSR,Unknown,Unknown,Unknown,1 33379U 08046B   25167.56016973 -.00000032  00000+0  00000+0 0  9995,2 33379  65.6790 327.3047 0014151 175.3797 183.7982  2.13098378130156,2.13098378,0.0014151,MEO
33380,COSMOS 2444 [GLONASS-M],2008,675.7,-1.0,-,65.69,Inactive,0,MEO,Kazakhstan,Russia/USSR,Unknown,Unknown,Unknown,1 33380U 08046C   25167.11718104 -.00000032  00000+0  00000+0 0  9993,2 33380  65.6881 327.3674 0018726 292.8088 244.7493  2.13112194130142,2.13112194,0.0018726,MEO
8808,NATO 3A,1976,1442.3,-1.0,UNK,5.81,Inactive,0,GSO,USA,NATO,Unknown,Unknown,Unknown,1 08808U 76035A   25168.84655271 -.00000203  00000+0  00000+0 0  9999,2 08808   5.8055 299.8001 0023783 317.1624 240.5100  0.99840206743616,0.99840206,0.0023783,GSO
33393,DEMOSAT/FALCON 1,2008,96.36,-1.0,UNK,9.35,Inactive,0,LEO,USA,USA,Unknown,Unknown,Unknown,1 33393U 08048A   25168.96723828  .00002699  00000+0  18089-3 0  9992,2 33393   9.3468 314.1571 0010831 190.5306 169.4667 14.94362485908307,14.94362485,0.0010831,LEO
8818,OPS 6431,1976,103.49,-1.0,UNK,63.35,Inactive,0,LEO,USA,USA,Unknown,Unknown,Unknown,1 08818U 76038A   25169.56701823  .00000191  00000+0  12736-3 0  9996,2 08818  63.3545  11.6402 0397439 177.5504 182.7623 13.91427171 56625,13.91427171,0.0397439,LEO
8835,SSU 1,1976,104.13,-1.0,UNK,63.35,Inactive,0,LEO,USA,USA,Unknown,Unknown,Unknown,1 08835U 76038C   25169.38350760  .00000036  00000+0  68052-4 0  9996,2 08835  63.3549 183.7676 0421526 175.2310 185.2957 13.82898629308502,13.82898629,0.0421526,LEO
8836,SSU 2,1976,104.14,-1.0,UNK,63.35,Inactive,0,LEO,USA,USA,Unknown,Unknown,Unknown,1 08836U 76038D   25169.40513485  .00000038  00000+0  69423-4 0  9990,2 08836  63.3549 185.7270 0420525 175.4935 185.0094 13.82740046300970,13.82740046,0.0420525,LEO
33414,VENESAT-1,2008,1450.54,-1.0,-,4.82,Inactive,0,GSO,PRC,Venezuela,Unknown,Unknown,Unknown,1 33414U 08055A   25169.54211535 -.00000029  00000+0  00000+0 0  9992,2 33414   4.8251  77.4116 0062126 183.7975  34.1220  0.99273261 60849,0.99273261,0.0062126,GSO
8838,COMSTAR 1,1976,1442.56,-1.0,UNK,8.74,Inactive,0,GSO,USA,USA,Unknown,Unknown,Unknown,1 08838U 76042A   25169.58129843  .00000113  00000+0  00000+0 0  9992,2 08838   8.7405 307.2427 0002440 345.6980 214.8650  0.99822943116946,0.99822943,0.000244,GSO
8845,METEOR 1-25,1976,102.0,-1.0,UNK,81.26,Inactive,0,LEO,Russia,Russia/USSR,Unknown,Unknown,Unknown,1 08845U 76043A   25169.63530469  .00000131  00000+0  64504-4 0  9991,2 08845  81.2629 309.9273 0038630 243.3481 116.3733 14.11781377673621,14.11781377,0.003863,LEO
25237,EUTELSAT 16B,1998,1465.28,-1.0,-,10.29,Inactive,0,GSO,French Guiana,EUTELSAT,Unknown,Unknown,Unknown,1 25237U 98013A   25169.16308831  .00000004  00000+0  00000+0 0  9995,2 25237  10.2904  49.4404 0004492 348.2506  10.0087  0.98274822 36646,0.98274822,0.0004492,GSO
17046,RADUGA 19,1986,1462.51,-1.0,-,11.69,Inactive,0,GSO,Kazakhstan,Russia/USSR,Unknown,Unknown,Unknown,1 17046U 86082A   25169.34021536 -.00000162  00000+0  00000+0 0  9997,2 17046  11.6909 327.6714 0012158 180.9308 192.0729  0.98461185139333,0.98461185,0.0012158,GSO
25239,NSS-806,1998,1453.42,-1.0,-,6.2,Inactive,0,GSO,USA,SES,Unknown,Unknown,Unknown,1 25239U 98014A   25169.44863604  .00000072  00000+0  00000+0 0  9998,2 25239   6.1967  74.1147 0003595  66.8473 149.6894  0.99076974 43360,0.99076974,0.0003595,GSO
8860,P 76-5,1976,105.25,-1.0,UNK,99.94,Inactive,0,LEO,USA,USA,Unknown,Unknown,Unknown,1 08860U 76047A   25169.47893600  .00000068  00000+0  13459-3 0  9994,2 08860  99.9366   7.8696 0041399 201.2044 215.9057 13.68196794446907,13.68196794,0.0041399,LEO
8873,COSMOS 823,1976,104.84,-1.0,UNK,82.97,Inactive,0,LEO,Russia,Russia/USSR,Unknown,Unknown,Unknown,1 08873U 76051A   25169.39783796  .00000040  00000+0  26069-4 0  9990,2 08873  82.9667  44.2484 0023153 145.7116  30.7439 13.73503121457201,13.73503121,0.0023153,LEO
17066,COSMOS 1791,1986,104.65,-1.0,UNK,82.95,Inactive,0,LEO,Russia,Russia/USSR,Unknown,Unknown,Unknown,1 17066U 86086A   25169.48770557  .00000068  00000+0  54224-4 0  9998,2 17066  82.9466 171.1755 0040992 173.7935 297.5447 13.76011949938170,13.76011949,0.0040992,LEO
25258,UFO 8 (USA 138),1998,1434.44,3206.0,-,10.69,Inactive,1,GSO,USA,USA,Military,Communications,Atlas,1 25258U 98016A   25169.59455289 -.00000317  00000+0  00000+0 0  9996,2 25258  10.6887  24.8624 0003247 238.3533 316.1801  1.00387248100210,1.00387248,0.0003247,GSO
25260,SPOT 4,1998,98.92,-1.0,-,98.25,Inactive,0,LEO,French Guiana,France,Unknown,Unknown,Unknown,1 25260U 98017A   25169.50439911  .00000318  00000+0  83268-4 0  9997,2 25260  98.2508 264.4662 0011288 267.0128  92.9778 14.55697758426398,14.55697758,0.0011288,LEO
33453,CIEL-2,2008,1454.22,-1.0,-,1.84,Inactive,1,GSO,Kazakhstan,Canada,Commercial,Communications,Proton,1 33453U 08063A   25169.59707242 -.00000140  00000+0  00000+0 0  9998,2 33453   1.8385  85.6905 0007182 312.2753 195.0895  0.99022344 60421,0.99022344,0.0007182,GSO
17070,POLAR BEAR,1986,104.71,-1.0,UNK,89.61,Inactive,0,LEO,USA,USA,Unknown,Unknown,Unknown,1 17070U 86088A   25169.52947553  .00000082  00000+0  74302-4 0  9997,2 17070  89.6141 190.8362 0037284 296.7513 186.0618 13.75208923935436,13.75208923,0.0037284,LEO
25262,IRIDIUM 51,1998,93.51,-1.0,-,86.38,Inactive,0,LEO,PRC,USA,Unknown,Unknown,Unknown,1 25262U 98018A   25169.39568857  .00022544  00000+0  50026-3 0  9999,2 25262  86.3831  55.2355 0083513 244.6856 114.5730 15.39866694447214,15.39866694,0.0083513,LEO
8882,MARISAT 3,1976,1501.58,-1.0,-,8.57,Inactive,0,HEO,USA,USA,Unknown,Unknown,Unknown,1 08882U 76053A   25169.46743480 -.00000076  00000+0  00000+0 0  9998,2 08882   8.5667 303.3571 0129780 325.8651  41.4243  0.95899308117670,0.95899308,0.012978,HEO
33460,EUTELSAT 48D,2008,1458.09,3460.0,-,4.39,Inactive,1,GSO,French Guiana,EUTELSAT,Commercial,Communications,Ariane,1 33460U 08065B   25169.37333398  .00000070  00000+0  00000+0 0  9992,2 33460   4.3863  78.8113 0002362 348.8226  36.2405  0.98759320 60207,0.9875932,0.0002362,GSO
33463,FENGYUN 2E,2008,1452.74,-1.0,-,8.43,Inactive,0,GSO,PRC,China,Unknown,Unknown,Unknown,1 33463U 08066A   25168.99949161 -.00000236  00000+0  00000+0 0  9999,2 33463   8.4302  57.5582 0001072  65.6913 120.4518  0.99123138 60395,0.99123138,0.0001072,GSO
8884,SSU 3,1976,103.76,-1.0,UNK,63.35,Inactive,0,LEO,USA,USA,Unknown,Unknown,Unknown,1 08884U 76038J   25169.18478539  .00000045  00000+0  68637-4 0  9992,2 08884  63.3542 100.3967 0410363 177.7847 182.5150 13.87816622311581,13.87816622,0.0410363,LEO
8889,COSMOS 825,1976,114.67,-1.0,UNK,74.0,Inactive,0,LEO,Russia,Russia/USSR,Unknown,Unknown,Unknown,1 08889U 76054A   25169.40548619  .00000001  00000+0  10599-3 0  9992,2 08889  73.9982 152.0340 0058934 333.6038 179.6025 12.55735920246510,12.5573592,0.0058934,LEO
